PAKSAT-1R               
1 37779U 11042A   26176.53251993  .00000163  00000+0  00000+0 0  9998
2 37779   0.7109  84.5419 0003507 346.2353  72.5389  1.00271330 54565
SES-2                   
1 37809U 11049A   26176.50774701 -.00000186  00000+0  00000+0 0  9999
2 37809   0.0819  95.2652 0003050 356.2241 277.9404  1.00272466 54041
ARABSAT-5C              
1 37810U 11049B   26176.31504293  .00000133  00000+0  00000+0 0  9998
2 37810   0.0472   3.1623 0003315 108.5518 295.1733  1.00268706 54110
EUTELSAT 7 WEST A       
1 37816U 11051A   26176.38091697 -.00000050  00000+0  00000+0 0  9992
2 37816   0.0598 351.6871 0004679 115.4767 296.1841  1.00273395 53950
QUETZSAT 1              
1 37826U 11054A   26176.50974036 -.00000231  00000+0  00000+0 0  9998
2 37826   0.0171 320.9134 0002896 134.7351 284.5078  1.00272668 49951
INTELSAT 18 (IS-18)     
1 37834U 11056A   26176.41807550  .00000063  00000+0  00000+0 0  9997
2 37834   0.0186 291.0324 0002033 166.3252 146.6946  1.00272659 53899
EUTELSAT 16A            
1 37836U 11057A   26176.38516366  .00000114  00000+0  00000+0 0  9995
2 37836   0.0395   4.0804 0005611  90.4647 333.6256  1.00271651  7418
VIASAT-1                
1 37843U 11059A   26176.28831848 -.00000014  00000+0  00000+0 0  9999
2 37843   0.0009 357.0742 0002565  98.7578 166.2791  1.00270719 47400
ASIASAT 7               
1 37933U 11069A   26176.54584032 -.00000323  00000+0  00000+0 0  9992
2 37933   0.0382 276.3724 0001535 162.3551 136.9277  1.00268405 44940
BEIDOU-2 IGSO-5         
1 37948U 11073A   26175.65702808 -.00000196  00000+0  00000+0 0  9995
2 37948  47.6633 271.4526 0114223 222.0346 107.5350  1.00272136 53204
LUCH-5A                 
1 37951U 11074B   26176.52420987 -.00000048  00000+0  00000+0 0  9998
2 37951   8.7750  73.6867 0002679  30.3697 165.2453  1.00272159 53138
NIGCOMSAT 1R            
1 38014U 11077A   26176.53338660  .00000155  00000+0  00000+0 0  9997
2 38014   0.0457 236.6376 0002637 121.0404 150.5114  1.00275455 53045
WGS F4 (USA 233)        
1 38070U 12003A   26176.34142083  .00000000  00000+0  00000+0 0  9999
2 38070   0.0244  15.8760 0001723 100.8027   8.1381  1.00266012 44230
SES-4                   
1 38087U 12007A   26176.37805696 -.00000159  00000+0  00000+0 0  9996
2 38087   0.0235  33.6999 0002283  55.2864 298.6385  1.00268514 52300
BEIDOU-2 G5             
1 38091U 12008A   26176.18018738  .00000063  00000+0  00000+0 0  9997
2 38091   3.5944  69.6576 0008771 275.7368  51.5000  1.00275083 52440
MUOS-1                  
1 38093U 12009A   26176.23653925 -.00000123  00000+0  00000+0 0  9997
2 38093   5.4919  47.1458 0057841   2.2946 209.0978  1.00273101 52524
INTELSAT 22 (IS-22)     
1 38098U 12011A   26176.53927995  .00000000  00000+0  00000+0 0  9992
2 38098   0.0346  50.7061 0001994  85.8313  43.3858  1.00270653  7274
APSTAR-7                
1 38107U 12013A   26176.54014663  .00000000  00000+0  00000+0 0  9995
2 38107   0.0166  14.9430 0003254  88.3441  81.3501  1.00270387 51896
YAHSAT 1B               
1 38245U 12016A   26176.29141868  .00000136  00000+0  00000+0 0  9991
2 38245   0.0956  89.3480 0003207  24.7740 311.8027  1.00269275 45689
AEHF-2 (USA 235)        
1 38254U 12019A   26176.37909696 -.00000132  00000+0  00000+0 0  9991
2 38254   6.6691  57.4304 0001990  36.2759 299.7174  1.00271987  7063
JCSAT-13                
1 38331U 12023A   26176.54953066 -.00000346  00000+0  00000+0 0  9998
2 38331   0.0141  47.6645 0002788  53.2517 134.6041  1.00270726 51624
VINASAT-2               
1 38332U 12023B   26176.55109066 -.00000319  00000+0  00000+0 0  9993
2 38332   0.0140 340.2867 0002548 119.2836 144.3505  1.00270933 46743
NIMIQ 6                 
1 38342U 12026A   26176.50688034 -.00000164  00000+0  00000+0 0  9997
2 38342   0.0101  22.9062 0002941  67.0614 275.0471  1.00271803 50491
INTELSAT 19 (IS-19)     
1 38356U 12030A   26175.81850399 -.00000047  00000+0  00000+0 0  9995
2 38356   0.0179   1.9960 0003321  99.4834 272.1565  1.00273280 50528
ECHOSTAR 17             
1 38551U 12035A   26176.36115687  .00000000  00000+0  00000+0 0  9990
2 38551   0.0271  18.9819 0002158  76.2645 201.1711  1.00270082 51140
METEOSAT-10 (MSG-3)     
1 38552U 12035B   26176.31114292 -.00000001  00000+0  00000+0 0  9999
2 38552   4.6909  60.9870 0001721   7.2984 317.3776  1.00268265 50935
SES-5                   
1 38652U 12036A   26176.52586043  .00000044  00000+0  00000+0 0  9997
2 38652   0.0440 319.4688 0002254 132.5340  15.9396  1.00270102 44547
INTELSAT 20 (IS-20)     
1 38740U 12043A   26175.87197582  .00000000  00000+0  00000+0 0  9998
2 38740   0.0375  69.0879 0002337 110.0778 116.2550  1.00271269 50820
HYLAS 2                 
1 38741U 12043B   26176.29675618 -.00000249  00000+0  00000+0 0  9993
2 38741   2.4484  80.9787 0002785  31.5109 195.2003  1.00271004 50850
INTELSAT 21 (IS-21)     
1 38749U 12045A   26176.37086359 -.00000275  00000+0  00000+0 0  9999
2 38749   0.0215  65.9228 0001778  42.3683 240.7282  1.00270899 50604
ASTRA 2F                
1 38778U 12051A   26176.53052660  .00000160  00000+0  00000+0 0  9996
2 38778   0.0858 258.4097 0002491 272.5731 321.8841  1.00275922 41228
