OBJECT_NAME,OBJECT_ID,EPOCH,MEAN_MOTION,ECCENTRICITY,INCLINATION,RA_OF_ASC_NODE,ARG_OF_PERICENTER,MEAN_ANOMALY,EPHEMERIS_TYPE,CLASSIFICATION_TYPE,NORAD_CAT_ID,ELEMENT_SET_NO,REV_AT_EPOCH,BSTAR,MEAN_MOTION_DOT,MEAN_MOTION_DDOT
PAKSAT-1R,2011-042A,2026-06-25T12:46:49.721952,1.00271330,.00035071,0.7109,84.5419,346.2353,72.5389,0,U,37779,999,5456,0,.163E-5,0
SES-2,2011-049A,2026-06-25T12:11:09.341664,1.00272466,.00030506,0.0819,95.2652,356.2241,277.9404,0,U,37809,999,5404,0,-.186E-5,0
ARABSAT-5C,2011-049B,2026-06-25T07:33:39.709152,1.00268706,.00033155,0.0472,3.1623,108.5518,295.1733,0,U,37810,999,5411,0,.133E-5,0
EUTELSAT 7 WEST A,2011-051A,2026-06-25T09:08:31.226208,1.00273395,.00046792,0.0598,351.6871,115.4767,296.1841,0,U,37816,999,5395,0,-.5E-6,0
QUETZSAT 1,2011-054A,2026-06-25T12:14:01.567104,1.00272668,.00028965,0.0171,320.9134,134.7351,284.5078,0,U,37826,999,4995,0,-.231E-5,0
INTELSAT 18 (IS-18),2011-056A,2026-06-25T10:02:01.723200,1.00272659,.00020332,0.0186,291.0324,166.3252,146.6946,0,U,37834,999,5389,0,.63E-6,0
EUTELSAT 16A,2011-057A,2026-06-25T09:14:38.140224,1.00271651,.00056118,0.0395,4.0804,90.4647,333.6256,0,U,37836,999,741,0,.114E-5,0
VIASAT-1,2011-059A,2026-06-25T06:55:10.716672,1.00270719,.00025657,0.0009,357.0742,98.7578,166.2791,0,U,37843,999,4740,0,-.14E-6,0
ASIASAT 7,2011-069A,2026-06-25T13:06:00.603648,1.00268405,.00015356,0.0382,276.3724,162.3551,136.9277,0,U,37933,999,4494,0,-.323E-5,0
BEIDOU-2 IGSO-5,2011-073A,2026-06-24T15:46:07.226112,1.00272136,.01142233,47.6633,271.4526,222.0346,107.5350,0,U,37948,999,5320,0,-.196E-5,0
LUCH-5A,2011-074B,2026-06-25T12:34:51.732768,1.00272159,.00026793,8.7750,73.6867,30.3697,165.2453,0,U,37951,999,5313,0,-.48E-6,0
NIGCOMSAT 1R,2011-077A,2026-06-25T12:48:04.602240,1.00275455,.00026376,0.0457,236.6376,121.0404,150.5114,0,U,38014,999,5304,0,.155E-5,0
WGS F4 (USA 233),2012-003A,2026-06-25T08:11:38.759712,1.00266012,.00017239,0.0244,15.8760,100.8027,8.1381,0,U,38070,999,4423,0,0,0
SES-4,2012-007A,2026-06-25T09:04:24.121344,1.00268514,.00022832,0.0235,33.6999,55.2864,298.6385,0,U,38087,999,5230,0,-.159E-5,0
BEIDOU-2 G5,2012-008A,2026-06-25T04:19:28.189632,1.00275083,.00087715,3.5944,69.6576,275.7368,51.5000,0,U,38091,999,5244,0,.63E-6,0
MUOS-1,2012-009A,2026-06-25T05:40:36.991200,1.00273101,.00578416,5.4919,47.1458,2.2946,209.0978,0,U,38093,999,5252,0,-.123E-5,0
INTELSAT 22 (IS-22),2012-011A,2026-06-25T12:56:33.787680,1.00270653,.00019949,0.0346,50.7061,85.8313,43.3858,0,U,38098,999,727,0,0,0
APSTAR-7,2012-013A,2026-06-25T12:57:48.668832,1.00270387,.00032545,0.0166,14.9430,88.3441,81.3501,0,U,38107,999,5189,0,0,0
YAHSAT 1B,2012-016A,2026-06-25T06:59:38.573952,1.00269275,.00032076,0.0956,89.3480,24.7740,311.8027,0,U,38245,999,4568,0,.136E-5,0
AEHF-2 (USA 235),2012-019A,2026-06-25T09:05:53.977344,1.00271987,.00019908,6.6691,57.4304,36.2759,299.7174,0,U,38254,999,706,0,-.132E-5,0
JCSAT-13,2012-023A,2026-06-25T13:11:19.449024,1.00270726,.00027884,0.0141,47.6645,53.2517,134.6041,0,U,38331,999,5162,0,-.346E-5,0
VINASAT-2,2012-023B,2026-06-25T13:13:34.233024,1.00270933,.00025482,0.0140,340.2867,119.2836,144.3505,0,U,38332,999,4674,0,-.319E-5,0
NIMIQ 6,2012-026A,2026-06-25T12:09:54.461376,1.00271803,.0002941,0.0101,22.9062,67.0614,275.0471,0,U,38342,999,5049,0,-.164E-5,0
INTELSAT 19 (IS-19),2012-030A,2026-06-24T19:38:38.744736,1.00273280,.00033211,0.0179,1.9960,99.4834,272.1565,0,U,38356,999,5052,0,-.47E-6,0
ECHOSTAR 17,2012-035A,2026-06-25T08:40:03.953568,1.00270082,.00021583,0.0271,18.9819,76.2645,201.1711,0,U,38551,999,5114,0,0,0
METEOSAT-10 (MSG-3),2012-035B,2026-06-25T07:28:02.748288,1.00268265,.00017216,4.6909,60.9870,7.2984,317.3776,0,U,38552,999,5093,0,-.1E-7,0
SES-5,2012-036A,2026-06-25T12:37:14.341152,1.00270102,.00022545,0.0440,319.4688,132.5340,15.9396,0,U,38652,999,4454,0,.44E-6,0
INTELSAT 20 (IS-20),2012-043A,2026-06-24T20:55:38.710848,1.00271269,.00023379,0.0375,69.0879,110.0778,116.2550,0,U,38740,999,5082,0,0,0
HYLAS 2,2012-043B,2026-06-25T07:07:19.733952,1.00271004,.0002785,2.4484,80.9787,31.5109,195.2003,0,U,38741,999,5085,0,-.249E-5,0
INTELSAT 21 (IS-21),2012-045A,2026-06-25T08:54:02.614176,1.00270899,.00017788,0.0215,65.9228,42.3683,240.7282,0,U,38749,999,5060,0,-.275E-5,0
ASTRA 2F,2012-051A,2026-06-25T12:43:57.498240,1.00275922,.00024915,0.0858,258.4097,272.5731,321.8841,0,U,38778,999,4122,0,.16E-5,0
